NORAD_CAT_ID,OBJECT_NAME,OBJECT_TYPE,EPOCH,MEAN_MOTION,ECCENTRICITY,INCLINATION,RA_OF_ASC_NODE,ARG_OF_PERICENTER,MEAN_ANOMALY,BSTAR,MEAN_MOTION_DOT,MEAN_MOTION_DDOT,TLE_LINE0,TLE_LINE1,TLE_LINE2,SEMIMAJOR_AXIS,PERIOD,APOGEE,PERIGEE,DECAYED
55772.0,STARLINK-5835,PAYLOAD,2023-10-05 12:08:23,14.98333723,0.0002933,69.9996,298.7449,272.9313,87.151,-1.8493e-05,-3.14e-06,0.0,0 STARLINK-5835,1 55772U 23028AH  23278.50582953 -.00000314  00000-0 -18493-4 0  9999,2 55772  69.9996 298.7449 0002933 272.9313  87.1510 14.98333723 33790,6950.181,96.107,574.085,570.008,0.0
55772.0,STARLINK-5835,PAYLOAD,2023-10-05 18:32:55,14.98350296,0.0003103,69.9999,298.0705,274.5512,85.5293,-0.00031886,-3.898e-05,0.0,0 STARLINK-5835,1 55772U 23028AH  23278.77286553 -.00003898  00000-0 -31886-3 0  9995,2 55772  69.9999 298.0705 0003103 274.5512  85.5293 14.98350296 33839,6950.13,96.106,574.152,569.839,0.0
55772.0,STARLINK-5835,PAYLOAD,2023-10-06 02:33:36,14.98328513,0.0002899,69.9998,297.2301,270.0048,90.0779,1.942e-05,1.39e-06,0.0,0 STARLINK-5835,1 55772U 23028AH  23279.10667087  .00000139  00000-0  19420-4 0  9992,2 55772  69.9998 297.2301 0002899 270.0048  90.0779 14.98328513 33889,6950.197,96.107,574.077,570.048,0.0
55772.0,STARLINK-5835,PAYLOAD,2023-10-06 10:34:16,14.98366369,0.0003092,69.9994,296.3881,267.0672,93.0133,-0.00057835,-6.993e-05,0.0,0 STARLINK-5835,1 55772U 23028AH  23279.44046651 -.00006993  00000-0 -57835-3 0  9994,2 55772  69.9994 296.3881 0003092 267.0672  93.0133 14.98366369 33937,6950.08,96.105,574.094,569.796,0.0
55772.0,STARLINK-5835,PAYLOAD,2023-10-06 18:34:56,14.98331114,0.0003027,69.9989,295.5461,271.5487,88.5326,-2.1798e-05,-3.53e-06,0.0,0 STARLINK-5835,1 55772U 23028AH  23279.77427056 -.00000353  00000-0 -21798-4 0  9996,2 55772  69.9989 295.5461 0003027 271.5487  88.5326 14.98331114 33986,6950.189,96.107,574.158,569.951,0.0
55772.0,STARLINK-5835,PAYLOAD,2023-10-06 23:23:21,14.98317881,0.0002928,69.9997,295.0411,270.2923,89.79,0.00019637,2.25e-05,0.0,0 STARLINK-5835,1 55772U 23028AH  23279.97455482  .00002250  00000-0  19637-3 0  9996,2 55772  69.9997 295.0411 0002928 270.2923  89.7900 14.98317881 34016,6950.23,96.108,574.13,570.06,0.0
55772.0,STARLINK-5835,PAYLOAD,2023-10-07 10:36:17,14.98329702,0.0002579,69.9995,293.863,279.1879,80.8988,4.7563e-05,4.75e-06,0.0,0 STARLINK-5835,1 55772U 23028AH  23280.44187246  .00000475  00000-0  47563-4 0  9997,2 55772  69.9995 293.8630 0002579 279.1879  80.8988 14.98329702 34083,6950.194,96.107,573.851,570.266,0.0
55772.0,STARLINK-5835,PAYLOAD,2023-10-07 20:13:06,14.98329413,0.0002965,69.9989,292.853,271.1286,88.9534,7.9109e-06,1e-08,0.0,0 STARLINK-5835,1 55772U 23028AH  23280.84243206  .00000001  00000-0  79109-5 0  9997,2 55772  69.9989 292.8530 0002965 271.1286  88.9534 14.98329413 34149,6950.195,96.107,574.12,569.999,0.0
55772.0,STARLINK-5835,PAYLOAD,2023-10-08 10:38:18,14.98332672,0.0002998,69.9988,291.3376,270.3759,89.7057,6.0096e-05,6.24e-06,0.0,0 STARLINK-5835,1 55772U 23028AH  23281.44326864  .00000624  00000-0  60096-4 0  9991,2 55772  69.9988 291.3376 0002998 270.3759  89.7057 14.98332672 34232,6950.185,96.107,574.133,569.966,0.0
55772.0,STARLINK-5835,PAYLOAD,2023-10-08 12:14:26,14.98333871,0.0003006,69.9988,291.1693,270.3738,89.7077,7.2296e-05,7.7e-06,0.0,0 STARLINK-5835,1 55772U 23028AH  23281.51002749  .00000770  00000-0  72296-4 0  9999,2 55772  69.9988 291.1693 0003006 270.3738  89.7077 14.98333871 34245,6950.181,96.107,574.135,569.957,0.0
55772.0,STARLINK-5835,PAYLOAD,2023-10-08 18:38:58,14.9833252,0.0002997,69.9989,290.496,270.5269,89.5546,4.5506e-05,4.5e-06,0.0,0 STARLINK-5835,1 55772U 23028AH  23281.77706854  .00000450  00000-0  45506-4 0  9994,2 55772  69.9989 290.4960 0002997 270.5269  89.5546 14.98332520 34287,6950.185,96.107,574.133,569.967,0.0
55772.0,STARLINK-5835,PAYLOAD,2023-10-09 10:40:18,14.98337464,0.0002981,69.9989,288.8128,270.4287,89.6531,0.00010501,1.16e-05,0.0,0 STARLINK-5835,1 55772U 23028AH  23282.44466268  .00001160  00000-0  10501-3 0  9996,2 55772  69.9989 288.8128 0002981 270.4287  89.6531 14.98337464 34384,6950.17,96.107,574.107,569.963,0.0
55772.0,STARLINK-5835,PAYLOAD,2023-10-10 02:41:40,14.98327504,0.0002942,69.9992,287.1295,270.2692,89.813,-3.9986e-06,-1.41e-06,0.0,0 STARLINK-5835,1 55772U 23028AH  23283.11227098 -.00000141  00000-0 -39986-5 0  9997,2 55772  69.9992 287.1295 0002942 270.2692  89.8130 14.98327504 34482,6950.201,96.107,574.11,570.021,0.0
55772.0,STARLINK-5835,PAYLOAD,2023-10-10 10:42:18,14.98391423,0.0002582,69.9992,286.2877,263.06,97.0265,-0.0010279,-0.00012355,0.0,0 STARLINK-5835,1 55772U 23028AH  23283.44605261 -.00012355  00000-0 -10279-2 0  9996,2 55772  69.9992 286.2877 0002582 263.0600  97.0265 14.98391423 34534,6950.003,96.103,573.662,570.073,0.0
55772.0,STARLINK-5835,PAYLOAD,2023-10-11 02:43:41,14.98330178,0.0002707,69.9995,284.6056,268.3886,91.6963,-4.099e-05,-5.82e-06,0.0,0 STARLINK-5835,1 55772U 23028AH  23284.11366987 -.00000582  00000-0 -40990-4 0  9994,2 55772  69.9995 284.6056 0002707 268.3886  91.6963 14.98330178 34637,6950.192,96.107,573.939,570.176,0.0
55772.0,STARLINK-5835,PAYLOAD,2023-10-11 10:44:21,14.98328879,0.0002549,69.9995,283.7634,261.6993,98.3877,-3.565e-05,-5.18e-06,0.0,0 STARLINK-5835,1 55772U 23028AH  23284.44747057 -.00000518  00000-0 -35650-4 0  9997,2 55772  69.9995 283.7634 0002549 261.6993  98.3877 14.98328879 34686,6950.196,96.107,573.833,570.29,0.0
55772.0,STARLINK-5835,PAYLOAD,2023-10-12 04:21:50,14.98325607,0.0002896,69.9989,281.911,268.8817,91.201,1.7518e-05,1.16e-06,0.0,0 STARLINK-5835,1 55772U 23028AH  23285.18183211  .00000116  00000-0  17518-4 0  9990,2 55772  69.9989 281.9110 0002896 268.8817  91.2010 14.98325607 34796,6950.206,96.107,574.084,570.059,0.0
55772.0,STARLINK-5835,PAYLOAD,2023-10-12 09:10:14,14.98326306,0.0002759,69.9992,281.4061,265.3002,94.7842,5.4104e-05,5.53e-06,0.0,0 STARLINK-5835,1 55772U 23028AH  23285.38211117  .00000553  00000-0  54104-4 0  9996,2 55772  69.9992 281.4061 0002759 265.3002  94.7842 14.98326306 34828,6950.204,96.107,573.987,570.152,0.0
55772.0,STARLINK-5835,PAYLOAD,2023-10-12 17:10:54,14.98330075,0.0002511,69.9993,280.5644,271.3722,88.715,-1.4308e-05,-2.64e-06,0.0,0 STARLINK-5835,1 55772U 23028AH  23285.71591200 -.00000264  00000-0 -14308-4 0  9990,2 55772  69.9993 280.5644 0002511 271.3722  88.7150 14.98330075 34876,6950.193,96.107,573.803,570.312,0.0
55772.0,STARLINK-5835,PAYLOAD,2023-10-13 04:23:51,14.98329313,0.0002921,69.9989,279.3864,270.6011,89.4813,4.3861e-05,4.3e-06,0.0,0 STARLINK-5835,1 55772U 23028AH  23286.18322982  .00000430  00000-0  43861-4 0  9990,2 55772  69.9989 279.3864 0002921 270.6011  89.4813 14.98329313 34944,6950.195,96.107,574.09,570.03,0.0
55772.0,STARLINK-5835,PAYLOAD,2023-10-13 09:12:14,14.9833261,0.0002839,69.9991,278.8814,268.5629,91.5205,8.3368e-05,9.02e-06,0.0,0 STARLINK-5835,1 55772U 23028AH  23286.38350649  .00000902  00000-0  83368-4 0  9993,2 55772  69.9991 278.8814 0002839 268.5629  91.5205 14.98332610 34971,6950.185,96.107,574.023,570.077,0.0
55772.0,STARLINK-5835,PAYLOAD,2023-10-13 17:12:55,14.98329295,0.0002847,69.999,278.0393,274.1486,85.9348,0.00010716,1.186e-05,0.0,0 STARLINK-5835,1 55772U 23028AH  23286.71730827  .00001186  00000-0  10716-3 0  9991,2 55772  69.9990 278.0393 0002847 274.1486  85.9348 14.98329295 35024,6950.195,96.107,574.039,570.081,0.0
55772.0,STARLINK-5835,PAYLOAD,2023-10-14 04:25:51,14.98338315,0.0002913,69.9988,276.861,271.5879,88.4947,-7.1468e-05,-9.46e-06,0.0,0 STARLINK-5835,1 55772U 23028AH  23287.18462553 -.00000946  00000-0 -71468-4 0  9998,2 55772  69.9988 276.8610 0002913 271.5879  88.4947 14.98338315 35093,6950.167,96.106,574.057,570.008,0.0
55772.0,STARLINK-5835,PAYLOAD,2023-10-14 09:14:15,14.98335595,0.0003038,69.9989,276.3565,270.5363,89.5448,0.00010665,1.18e-05,0.0,0 STARLINK-5835,1 55772U 23028AH  23287.38490251  .00001180  00000-0  10665-3 0  9996,2 55772  69.9989 276.3565 0003038 270.5363  89.5448 14.98335595 35123,6950.176,96.107,574.152,569.929,0.0
55772.0,STARLINK-5835,PAYLOAD,2023-10-14 17:14:57,14.98321338,0.0002582,70.0014,275.5148,273.4278,86.6586,-5.6438e-05,-7.66e-06,0.0,0 STARLINK-5835,1 55772U 23028AH  23287.71871738 -.00000766  00000-0 -56438-4 0  9996,2 55772  70.0014 275.5148 0002582 273.4278  86.6586 14.98321338 35179,6950.22,96.108,573.879,570.29,0.0
55772.0,STARLINK-5835,PAYLOAD,2023-10-15 02:51:46,14.98313024,0.000271,69.9991,274.5041,266.0077,94.0773,-0.00017131,-2.135e-05,0.0,0 STARLINK-5835,1 55772U 23028AH  23288.11928819 -.00002135  00000-0 -17131-3 0  9992,2 55772  69.9991 274.5041 0002710 266.0077  94.0773 14.98313024 35230,6950.245,96.108,573.994,570.227,0.0
55772.0,STARLINK-5835,PAYLOAD,2023-10-15 09:16:19,14.98308967,0.0002925,69.9991,273.8319,266.5645,93.518,-0.00024181,-2.975e-05,0.0,0 STARLINK-5835,1 55772U 23028AH  23288.38633588 -.00002975  00000-0 -24181-3 0  9992,2 55772  69.9991 273.8319 0002925 266.5645  93.5180 14.98308967 35274,6950.258,96.108,574.156,570.09,0.0
55772.0,STARLINK-5835,PAYLOAD,2023-10-16 02:53:46,14.98326719,0.0002796,69.9986,271.9782,265.5297,94.5543,-5.7918e-06,-1.62e-06,0.0,0 STARLINK-5835,1 55772U 23028AH  23289.12068278 -.00000162  00000-0 -57918-5 0  9995,2 55772  69.9986 271.9782 0002796 265.5297  94.5543 14.98326719 35380,6950.203,96.107,574.011,570.125,0.0
55772.0,STARLINK-5835,PAYLOAD,2023-10-16 07:42:10,14.98333392,0.0002962,69.9987,271.4748,266.0671,94.015,8.3301e-05,9.01e-06,0.0,0 STARLINK-5835,1 55772U 23028AH  23289.32095648  .00000901  00000-0  83301-4 0  9991,2 55772  69.9987 271.4748 0002962 266.0671  94.0150 14.98333392 35413,6950.182,96.107,574.106,569.989,0.0
55772.0,STARLINK-5835,PAYLOAD,2023-10-16 09:18:18,14.98353093,0.0002441,69.9997,271.308,261.0759,99.0123,-0.00030036,-3.677e-05,0.0,0 STARLINK-5835,1 55772U 23028AH  23289.38771291 -.00003677  00000-0 -30036-3 0  9993,2 55772  69.9997 271.3080 0002441 261.0759  99.0123 14.98353093 35422,6950.121,96.106,573.683,570.29,0.0
